CORVUS BC1              
1 42847U 17042Y   26068.93334460  .00004853  00000+0  33801-3 0  9990
2 42847  97.3986 234.9925 0013283  71.1953 289.0714 15.05817892472152
STARLINK-3129           
1 49453U 21104AX  26068.68069416 -.00000787  00000+0 -31337-4 0  9999
2 49453  53.2176 219.2491 0001132  81.7118 278.4002 15.08844076238775
